ONEWEB-0196             
1 48218U 21031J   24210.65556522  .00000121  00000+0  29226-3 0  9992
2 48218  87.8931  66.6685 0001706  82.5701 277.5622 13.14504501157777
ONEWEB-0183             
1 48219U 21031K   24210.63018277 -.00000160  00000+0 -46708-3 0  9990
2 48219  87.8931  66.6894 0001868  87.7443 272.3901 13.14500964157861
ONEWEB-0185             
1 48220U 21031L   24210.65634599  .00000133  00000+0  32338-3 0  9997
2 48220  87.8929  66.6563 0001814  89.5947 270.5391 13.14504655157799
ONEWEB-0187             
1 48221U 21031M   24210.62621918 -.00000133  00000+0 -39240-3 0  9997
2 48221  87.8931  66.6955 0001825  87.6280 272.5059 13.14501052157802
ONEWEB-0192             
1 48222U 21031N   24210.60639438  .00000097  00000+0  22696-3 0  9996
2 48222  87.8934  66.6967 0001608  81.9344 278.1968 13.14506171157714
ONEWEB-0219             
1 48223U 21031P   24210.66189767  .00000165  00000+0  41009-3 0  9993
2 48223  87.8932  66.6597 0001716  90.8243 269.3084 13.14504616157925
ONEWEB-0202             
1 48224U 21031Q   24210.64286686 -.00000373  00000+0 -10416-2 0  9990
2 48224  87.8929  66.6821 0000941  92.7821 267.3416 13.14502477157902
ONEWEB-0204             
1 48225U 21031R   24210.67696581  .00000231  00000+0  58753-3 0  9991
2 48225  87.8929  66.6877 0002189  84.7101 275.4278 13.14504335157802
